NORAD_CAT_ID,OBJECT_NAME,OBJECT_TYPE,EPOCH,MEAN_MOTION,ECCENTRICITY,INCLINATION,RA_OF_ASC_NODE,ARG_OF_PERICENTER,MEAN_ANOMALY,BSTAR,MEAN_MOTION_DOT,MEAN_MOTION_DDOT,TLE_LINE0,TLE_LINE1,TLE_LINE2,SEMIMAJOR_AXIS,PERIOD,APOGEE,PERIGEE,DECAYED
51887.0,STARLINK-3551,PAYLOAD,2024-04-19 15:55:15,15.08862995,0.0001477,53.2161,212.279,108.1514,251.9639,0.00056914,8.787e-05,0.0,0 STARLINK-3551,1 51887U 22022AM  24110.66337669  .00008787  00000-0  56914-3 0  9999,2 51887  53.2161 212.2790 0001477 108.1514 251.9639 15.08862995119224,6917.81,95.436,540.697,538.653,0.0
51887.0,STARLINK-3551,PAYLOAD,2024-04-20 03:02:57,15.08863541,0.0001854,53.2156,210.2043,86.7068,273.4136,0.00030335,4.546e-05,0.0,0 STARLINK-3551,1 51887U 22022AM  24111.12705532  .00004546  00000-0  30335-3 0  9997,2 51887  53.2156 210.2043 0001854  86.7068 273.4136 15.08863541119297,6917.808,95.436,540.956,538.391,0.0
51887.0,STARLINK-3551,PAYLOAD,2024-04-20 14:10:38,15.08877434,0.000158,53.2159,208.1165,66.5025,293.6133,0.00054562,8.415e-05,0.0,0 STARLINK-3551,1 51887U 22022AM  24111.59072726  .00008415  00000-0  54562-3 0  9997,2 51887  53.2159 208.1165 0001580  66.5025 293.6133 15.08877434119361,6917.766,95.435,540.724,538.538,0.0
51887.0,STARLINK-3551,PAYLOAD,2024-04-21 02:53:44,15.08836674,9.76e-05,53.217,205.737,107.6724,252.4375,-0.0003753,-6.255e-05,0.0,0 STARLINK-3551,1 51887U 22022AM  24112.12065234 -.00006255  00000-0 -37530-3 0  9991,2 51887  53.2170 205.7370 0000976 107.6724 252.4375 15.08836674119447,6917.891,95.438,540.431,539.08,0.0
51887.0,STARLINK-3551,PAYLOAD,2024-04-21 10:50:40,15.08816536,0.0001068,53.2169,204.251,98.6144,261.497,-0.00062857,-0.00010271,0.0,0 STARLINK-3551,1 51887U 22022AM  24112.45186079 -.00010271  00000-0 -62857-3 0  9991,2 51887  53.2169 204.2510 0001068  98.6144 261.4970 15.08816536119494,6917.952,95.439,540.556,539.078,0.0
51887.0,STARLINK-3551,PAYLOAD,2024-04-21 15:36:50,15.08824128,0.000177,53.216,203.3518,139.978,220.1343,-0.00020474,-3.544e-05,0.0,0 STARLINK-3551,1 51887U 22022AM  24112.65057908 -.00003544  00000-0 -20474-3 0  9995,2 51887  53.2160 203.3518 0001770 139.9780 220.1343 15.08824128119524,6917.929,95.439,541.018,538.569,0.0
51887.0,STARLINK-3551,PAYLOAD,2024-04-22 10:41:29,15.08823742,0.0001205,53.2165,199.7912,86.2401,273.8729,0.00053822,8.284e-05,0.0,0 STARLINK-3551,1 51887U 22022AM  24113.44547839  .00008284  00000-0  53822-3 0  9997,2 51887  53.2165 199.7912 0001205  86.2401 273.8729 15.08823742119649,6917.93,95.439,540.629,538.961,0.0
51887.0,STARLINK-3551,PAYLOAD,2024-04-22 15:27:38,15.08846453,0.0001338,53.2163,198.8949,90.0804,270.0342,0.001127,0.00017697,0.0,0 STARLINK-3551,1 51887U 22022AM  24113.64419504  .00017697  00000-0  11270-2 0  9994,2 51887  53.2163 198.8949 0001338  90.0804 270.0342 15.08846453119671,6917.861,95.437,540.651,538.8,0.0
51887.0,STARLINK-3551,PAYLOAD,2024-04-23 00:59:57,15.08844883,0.0001776,53.2161,197.1107,130.392,229.7227,0.00074436,0.0001158,0.0,0 STARLINK-3551,1 51887U 22022AM  24114.04163525  .00011580  00000-0  74436-3 0  9997,2 51887  53.2161 197.1107 0001776 130.3920 229.7227 15.08844883119735,6917.865,95.437,540.959,538.502,0.0
51887.0,STARLINK-3551,PAYLOAD,2024-04-23 12:07:38,15.08890936,0.000152,53.216,195.034,78.7952,281.3211,0.0023071,0.00036672,0.0,0 STARLINK-3551,1 51887U 22022AM  24114.50530692  .00036672  00000-0  23071-2 0  9998,2 51887  53.2160 195.0340 0001520  78.7952 281.3211 15.08890936119802,6917.725,95.434,540.641,538.538,0.0
51887.0,STARLINK-3551,PAYLOAD,2024-04-24 05:36:52,15.08837352,8.02e-05,53.2164,191.7596,115.858,244.2495,0.00069156,0.00010735,0.0,0 STARLINK-3551,1 51887U 22022AM  24115.23394523  .00010735  00000-0  69156-3 0  9997,2 51887  53.2164 191.7596 0000802 115.8580 244.2495 15.08837352119911,6917.888,95.438,540.308,539.199,0.0
51887.0,STARLINK-3551,PAYLOAD,2024-04-24 11:58:25,15.08846446,0.0001417,53.216,190.5716,111.4044,248.7099,0.0025829,0.00041066,0.0,0 STARLINK-3551,1 51887U 22022AM  24115.49890837  .00041066  00000-0  25829-2 0  9993,2 51887  53.2160 190.5716 0001417 111.4044 248.7099 15.08846446119955,6917.861,95.437,540.706,538.745,0.0
51887.0,STARLINK-3551,PAYLOAD,2024-04-25 05:27:40,15.08834675,0.0001309,53.2167,187.3053,89.6878,270.4265,0.00094037,0.00014707,0.0,0 STARLINK-3551,1 51887U 22022AM  24116.22755321  .00014707  00000-0  94037-3 0  9993,2 51887  53.2167 187.3053 0001309  89.6878 270.4265 15.08834675120063,6917.897,95.438,540.667,538.856,0.0
51887.0,STARLINK-3551,PAYLOAD,2024-04-25 10:13:49,15.08846353,0.000128,53.2157,186.4107,81.806,278.3078,0.0018553,0.00029368,0.0,0 STARLINK-3551,1 51887U 22022AM  24116.42627303  .00029368  00000-0  18553-2 0  9990,2 51887  53.2157 186.4107 0001280  81.8060 278.3078 15.08846353120095,6917.861,95.437,540.611,538.84,0.0
51887.0,STARLINK-3551,PAYLOAD,2024-04-26 02:07:41,15.08857358,0.000134,53.2151,183.4378,86.5207,273.5938,0.0017059,0.00026979,0.0,0 STARLINK-3551,1 51887U 22022AM  24117.08867463  .00026979  00000-0  17059-2 0  9991,2 51887  53.2151 183.4378 0001340  86.5207 273.5938 15.08857358120198,6917.827,95.436,540.619,538.765,0.0
51887.0,STARLINK-3551,PAYLOAD,2024-04-26 13:15:22,15.08857901,0.0001927,53.215,181.3483,130.2611,229.8549,0.00054674,8.428e-05,0.0,0 STARLINK-3551,1 51887U 22022AM  24117.55234593  .00008428  00000-0  54674-3 0  9999,2 51887  53.2150 181.3483 0001927 130.2611 229.8549 15.08857901120262,6917.826,95.436,541.024,538.358,0.0
51887.0,STARLINK-3551,PAYLOAD,2024-04-27 01:58:28,15.088441,0.0001472,53.2144,178.9783,76.5279,283.5877,-8.833e-05,-1.694e-05,0.0,0 STARLINK-3551,1 51887U 22022AM  24118.08226930 -.00001694  00000-0 -88330-4 0  9991,2 51887  53.2144 178.9783 0001472  76.5279 283.5877 15.08844100120344,6917.868,95.437,540.751,538.715,0.0
51887.0,STARLINK-3551,PAYLOAD,2024-04-27 13:06:09,15.08860784,0.0001459,53.2141,176.8953,78.6802,281.4354,0.00065959,0.00010231,0.0,0 STARLINK-3551,1 51887U 22022AM  24118.54594365  .00010231  00000-0  65959-3 0  9998,2 51887  53.2141 176.8953 0001459  78.6802 281.4354 15.08860784120418,6917.817,95.436,540.691,538.673,0.0
51887.0,STARLINK-3551,PAYLOAD,2024-04-27 21:03:05,15.08833617,0.0001762,53.214,175.4058,75.8092,284.3096,8.545e-05,1.072e-05,0.0,0 STARLINK-3551,1 51887U 22022AM  24118.87715170  .00001072  00000-0  85450-4 0  9995,2 51887  53.2140 175.4058 0001762  75.8092 284.3096 15.08833617120460,6917.9,95.438,540.984,538.546,0.0
51887.0,STARLINK-3551,PAYLOAD,2024-04-28 12:56:58,15.08819004,0.0001571,53.214,172.4339,62.5077,297.6075,0.0013034,0.00020505,0.0,0 STARLINK-3551,1 51887U 22022AM  24119.53956391  .00020505  00000-0  13034-2 0  9990,2 51887  53.2140 172.4339 0001571  62.5077 297.6075 15.08819004120562,6917.945,95.439,540.896,538.723,0.0
51887.0,STARLINK-3551,PAYLOAD,2024-04-28 20:53:54,15.08818011,0.0001642,53.2139,170.9465,63.8981,296.218,0.0006151,9.509e-05,0.0,0 STARLINK-3551,1 51887U 22022AM  24119.87076973  .00009509  00000-0  61510-3 0  9990,2 51887  53.2139 170.9465 0001642  63.8981 296.2180 15.08818011120615,6917.948,95.439,540.949,538.677,0.0
51887.0,STARLINK-3551,PAYLOAD,2024-04-29 09:36:59,15.08834295,0.0001599,53.2143,168.5676,62.4758,297.6397,0.0008075,0.00012585,0.0,0 STARLINK-3551,1 51887U 22022AM  24120.40069312  .00012585  00000-0  80750-3 0  9995,2 51887  53.2143 168.5676 0001599  62.4758 297.6397 15.08834295120690,6917.898,95.438,540.869,538.657,0.0
51887.0,STARLINK-3551,PAYLOAD,2024-04-29 20:44:41,15.08846807,0.0001664,53.2145,166.4858,63.074,297.0422,0.00078973,0.00012305,0.0,0 STARLINK-3551,1 51887U 22022AM  24120.86437182  .00012305  00000-0  78973-3 0  9993,2 51887  53.2145 166.4858 0001664  63.0740 297.0422 15.08846807120765,6917.86,95.437,540.876,538.573,0.0
51887.0,STARLINK-3551,PAYLOAD,2024-04-30 01:30:50,15.08854569,0.0001676,53.2145,165.5938,62.3378,297.7784,0.00087247,0.0001363,0.0,0 STARLINK-3551,1 51887U 22022AM  24121.06308974  .00013630  00000-0  87247-3 0  9998,2 51887  53.2145 165.5938 0001676  62.3378 297.7784 15.08854569120791,6917.836,95.437,540.86,538.541,0.0
51887.0,STARLINK-3551,PAYLOAD,2024-04-30 09:27:46,15.08862396,0.0001702,53.2147,164.107,61.4341,298.6822,0.00077459,0.00012069,0.0,0 STARLINK-3551,1 51887U 22022AM  24121.39428522  .00012069  00000-0  77459-3 0  9995,2 51887  53.2147 164.1070 0001702  61.4341 298.6822 15.08862396120841,6917.812,95.436,540.854,538.5,0.0
51887.0,STARLINK-3551,PAYLOAD,2024-05-01 04:32:23,15.08855651,0.0001672,53.2152,160.5391,61.074,299.042,0.00022179,3.245e-05,0.0,0 STARLINK-3551,1 51887U 22022AM  24122.18915963  .00003245  00000-0  22179-3 0  9998,2 51887  53.2152 160.5391 0001672  61.0740 299.0420 15.08855651120966,6917.833,95.437,540.854,538.541,0.0
51887.0,STARLINK-3551,PAYLOAD,2024-05-01 09:18:32,15.0885684,0.0001655,53.2153,159.6466,62.6778,297.4382,0.00025944,3.845e-05,0.0,0 STARLINK-3551,1 51887U 22022AM  24122.38787801  .00003845  00000-0  25944-3 0  9997,2 51887  53.2153 159.6466 0001655  62.6778 297.4382 15.08856840120991,6917.829,95.436,540.839,538.549,0.0
51887.0,STARLINK-3551,PAYLOAD,2024-05-02 04:23:10,15.08849244,0.0001642,53.2154,156.0784,63.384,296.732,4.5612e-07,-2.81e-06,0.0,0 STARLINK-3551,1 51887U 22022AM  24123.18275507 -.00000281  00000-0  45612-6 0  9990,2 51887  53.2154 156.0784 0001642  63.3840 296.7320 15.08849244121119,6917.852,95.437,540.853,538.581,0.0
51887.0,STARLINK-3551,PAYLOAD,2024-05-02 07:33:56,15.0884954,0.0001607,53.216,155.4835,64.0801,296.0357,2.7438e-05,1.49e-06,0.0,0 STARLINK-3551,1 51887U 22022AM  24123.31523653  .00000149  00000-0  27438-4 0  9999,2 51887  53.2160 155.4835 0001607  64.0801 296.0357 15.08849540121136,6917.851,95.437,540.828,538.605,0.0
51887.0,STARLINK-3551,PAYLOAD,2024-05-03 09:00:06,15.0884762,0.0001598,53.2156,150.7272,66.8592,293.2569,8.2404e-05,1.024e-05,0.0,0 STARLINK-3551,1 51887U 22022AM  24124.37507076  .00001024  00000-0  82404-4 0  9994,2 51887  53.2156 150.7272 0001598  66.8592 293.2569 15.08847620121298,6917.857,95.437,540.828,538.617,0.0
